{
    "links": {
        "self": "http://www.neowsapp.com/rest/v1/neo/3779044?api_key=iIulBulltgU6a56xZRHN4H3l9WmuAYTsLGpBGhQ2"
    },
    "id": "3779044",
    "neo_reference_id": "3779044",
    "name": "(2017 OZ19)",
    "designation": "2017 OZ19",
    "nasa_jpl_url": "http://ssd.jpl.nasa.gov/sbdb.cgi?sstr=3779044",
    "absolute_magnitude_h": 27.5,
    "estimated_diameter": {
        "kilometers": {
            "estimated_diameter_min": 0.008405334,
            "estimated_diameter_max": 0.0187948982
        },
        "meters": {
            "estimated_diameter_min": 8.4053340207,
            "estimated_diameter_max": 18.7948982439
        },
        "miles": {
            "estimated_diameter_min": 0.0052228308,
            "estimated_diameter_max": 0.0116786047
        },
        "feet": {
            "estimated_diameter_min": 27.5765560686,
            "estimated_diameter_max": 61.6630539546
        }
    },
    "is_potentially_hazardous_asteroid": false,
    "close_approach_data": [
        {
            "close_approach_date": "1954-05-06",
            "close_approach_date_full": "1954-May-06 04:26",
            "epoch_date_close_approach": -494105640000,
            "relative_velocity": {
                "kilometers_per_second": "12.4667667529",
                "kilometers_per_hour": "44880.3603104666",
                "miles_per_hour": "27886.9105495786"
            },
            "miss_distance": {
                "astronomical": "0.1614262702",
                "lunar": "62.7948191078",
                "kilometers": "24149026.183964474",
                "miles": "15005509.0560147812"
            },
            "orbiting_body": "Earth"
        },
        {
            "close_approach_date": "2017-07-17",
            "close_approach_date_full": "2017-Jul-17 16:39",
            "epoch_date_close_approach": 1500309540000,
            "relative_velocity": {
                "kilometers_per_second": "7.6358661738",
                "kilometers_per_hour": "27489.1182257619",
                "miles_per_hour": "17080.6690442241"
            },
            "miss_distance": {
                "astronomical": "0.0107176791",
                "lunar": "4.1691771699",
                "kilometers": "1603341.964703517",
                "miles": "996270.4991898546"
            },
            "orbiting_body": "Earth"
        }
    ],
    "orbital_data": {
        "orbit_id": "2",
        "orbit_determination_date": "2017-08-08 06:17:10",
        "first_observation_date": "2017-07-25",
        "last_observation_date": "2017-07-31",
        "data_arc_in_days": 6,
        "observations_used": 12,
        "orbit_uncertainty": "8",
        "minimum_orbit_intersection": ".00824862",
        "jupiter_tisserand_invariant": "3.857",
        "epoch_osculation": "2457961.5",
        "eccentricity": ".4645048576100911",
        "semi_major_axis": "1.859138182783531",
        "inclination": "1.24315790505612",
        "ascending_node_longitude": "134.3477239911177",
        "orbital_period": "925.9039408475962",
        "perihelion_distance": ".9955594659121835",
        "perihelion_argument": "136.8080960393537",
        "aphelion_distance": "2.722716899654879",
        "perihelion_time": "2457932.150815579798",
        "mean_anomaly": "11.41123384959416",
        "mean_motion": ".3888092318415307",
        "equinox": "J2000",
        "orbit_class": {
            "orbit_class_type": "APO",
            "orbit_class_description": "Near-Earth asteroid orbits which cross the Earth’s orbit similar to that of 1862 Apollo",
            "orbit_class_range": "a (semi-major axis) > 1.0 AU; q (perihelion) < 1.017 AU"
        }
    },
    "is_sentry_object": false
}